0 HJ-1A
1 33320U 08041A   13282.49094225  .00000756  00000-0  11918-3 0  5891
2 33320 097.8073 341.6275 0028105 043.1424 317.1983 14.74970704274120
0 HJ-1A
1 33320U 08041A   13282.83013717  .00000707  00000-0  11186-3 0  5901
2 33320 097.8074 341.9548 0028121 042.0834 318.2503 14.74970862274178
0 HJ-1A
1 33320U 08041A   13283.16933232  .00000772  00000-0  12152-3 0  5918
2 33320 097.8076 342.2824 0028103 040.9319 319.3998 14.74971738274225
0 HJ-1A
1 33320U 08041A   13283.37284909  .00000781  00000-0  12289-3 0  5923
2 33320 097.8077 342.4787 0028089 040.2832 320.0455 14.74972125274253
0 HJ-1A
1 33320U 08041A   13283.57636575  .00000806  00000-0  12656-3 0  5921
2 33320 097.8074 342.6746 0028078 039.7254 320.6019 14.74972716274287
0 HJ-1A
1 33320U 08041A   13283.84772108  .00000750  00000-0  11826-3 0  5931
2 33320 097.8075 342.9363 0028059 039.0121 321.3075 14.74972674274329
0 HJ-1A
1 33320U 08041A   13284.18691586  .00000806  00000-0  12655-3 0  5943
2 33320 097.8072 343.2634 0028022 037.8657 322.4533 14.74973665274378
0 HJ-1A
1 33320U 08041A   13284.45827083  .00000797  00000-0  12514-3 0  5950
2 33320 097.8072 343.5252 0027991 037.0370 323.2765 14.74974154274410
0 HJ-1A
1 33320U 08041A   13285.47585149  .00001023  00000-0  15853-3 0  5982
2 33320 097.8067 344.5059 0027909 033.6305 326.6674 14.74977235274564
0 HJ-1A
1 33320U 08041A   13285.81504472  .00000993  00000-0  15414-3 0  5999
2 33320 097.8067 344.8332 0027865 032.6174 327.6741 14.74977739274616
0 HJ-1A
1 33320U 08041A   13286.22207697  .00000972  00000-0  15105-3 0  6001
2 33320 097.8064 345.2261 0027784 031.3705 328.9162 14.74978380274675
0 HJ-1A
1 33320U 08041A   13286.49343126  .00000949  00000-0  14764-3 0  6013
2 33320 097.8064 345.4874 0027771 030.5167 329.7650 14.74978882274719
0 HJ-1A
1 33320U 08041A   13286.83262444  .00000834  00000-0  13064-3 0  6020
2 33320 097.8063 345.8142 0027794 029.3461 330.9275 14.74978835274768
0 HJ-1A
1 33320U 08041A   13287.23965648  .00000799  00000-0  12555-3 0  6036
2 33320 097.8063 346.2069 0027728 028.0989 332.1713 14.74979417274824
0 HJ-1A
1 33320U 08041A   13287.51101089  .00000698  00000-0  11060-3 0  6047
2 33320 097.8062 346.4685 0027729 027.2403 333.0254 14.74979471274866
0 HJ-1A
1 33320U 08041A   13287.85020360  .00000646  00000-0  10293-3 0  6057
2 33320 097.8060 346.7954 0027730 026.1214 334.1361 14.74979600274917
0 HJ-1A
1 33320U 08041A   13288.18939674  .00000670  00000-0  10648-3 0  6063
2 33320 097.8059 347.1224 0027709 025.0373 335.2183 14.74980313274962
0 HJ-1A
1 33320U 08041A   13288.52858911  .00000685  00000-0  10865-3 0  6073
2 33320 097.8060 347.4494 0027704 023.9602 336.2897 14.74980948275017
0 HJ-1A
1 33320U 08041A   13288.86778163  .00000710  00000-0  11233-3 0  6080
2 33320 097.8060 347.7764 0027728 022.7810 337.4636 14.74981544275066
0 HJ-1A
1 33320U 08041A   13289.20697258  .00000950  00000-0  14780-3 0  6091
2 33320 097.8058 348.1036 0027681 021.6263 338.6129 14.74983568275112
0 HJ-1A
1 33320U 08041A   13289.54616391  .00001089  00000-0  16831-3 0  6102
2 33320 097.8059 348.4306 0027661 020.6592 339.5750 14.74984973275164
0 HJ-1A
1 33320U 08041A   13289.88535514  .00001110  00000-0  17146-3 0  6112
2 33320 097.8060 348.7584 0027658 019.7607 340.4650 14.74985577275216
0 HJ-1A
1 33320U 08041A   13290.22454663  .00001152  00000-0  17765-3 0  6121
2 33320 097.8061 349.0857 0027593 018.7104 341.5124 14.74986633275260
0 HJ-1A
1 33320U 08041A   13290.36022289  .00001161  00000-0  17897-3 0  6138
2 33320 097.8061 349.2166 0027581 018.2763 341.9434 14.74987007275284
0 HJ-1A
1 33320U 08041A   13290.69941373  .00001167  00000-0  17984-3 0  6142
2 33320 097.8060 349.5437 0027544 017.2137 342.9999 14.74987872275333
0 HJ-1A
1 33320U 08041A   13290.83509008  .00001133  00000-0  17489-3 0  6157
2 33320 097.8063 349.6748 0027544 016.7923 343.4168 14.74987833275352
0 HJ-1A
1 33320U 08041A   13291.17428136  .00001115  00000-0  17214-3 0  6164
2 33320 097.8062 350.0020 0027542 015.6894 344.5167 14.74988591275402
0 HJ-1A
1 33320U 08041A   13291.51347217  .00001011  00000-0  15678-3 0  6170
2 33320 097.8061 350.3292 0027508 014.6573 345.5427 14.74988886275452
0 HJ-1A
1 33320U 08041A   13291.85266278  .00000954  00000-0  14831-3 0  6180
2 33320 097.8063 350.6567 0027531 013.5398 346.6523 14.74989180275504
0 HJ-1A
1 33320U 08041A   13292.19185326  .00000988  00000-0  15340-3 0  6196
2 33320 097.8063 350.9840 0027487 012.3229 347.8666 14.74990309275552
0 HJ-1A
1 33320U 08041A   13292.53104313  .00000961  00000-0  14936-3 0  6204
2 33320 097.8065 351.3115 0027462 011.3136 348.8689 14.74990941275607
0 HJ-1A
1 33320U 08041A   13292.87023298  .00000942  00000-0  14661-3 0  6218
2 33320 097.8064 351.6387 0027385 010.3176 349.8568 14.74991372275658
0 HJ-1A
1 33320U 08041A   13293.20942280  .00001063  00000-0  16455-3 0  6226
2 33320 097.8062 351.9663 0027359 009.1802 350.9910 14.74992775275707
0 HJ-1A
1 33320U 08041A   13293.54861213  .00001131  00000-0  17452-3 0  6234
2 33320 097.8060 352.2936 0027340 008.0549 352.1106 14.74993920275757
0 HJ-1A
1 33320U 08041A   13293.88780141  .00001026  00000-0  15909-3 0  6240
2 33320 097.8057 352.6207 0027287 007.0083 353.1467 14.74993909275804
0 HJ-1A
1 33320U 08041A   13294.22699134  .00001013  00000-0  15717-3 0  6254
2 33320 097.8058 352.9479 0027186 005.9526 354.2007 14.74994649275855
0 HJ-1A
1 33320U 08041A   13294.49834268  .00000964  00000-0  14983-3 0  6261
2 33320 097.8055 353.2094 0027181 005.0624 355.0855 14.74995042275896
0 HJ-1A
1 33320U 08041A   13294.83753197  .00000899  00000-0  14024-3 0  6274
2 33320 097.8056 353.5367 0027209 003.8294 356.3105 14.74995232275942
0 HJ-1A
1 33320U 08041A   13295.17672127  .00000913  00000-0  14238-3 0  6280
2 33320 097.8053 353.8637 0027138 002.7316 357.4052 14.74996050275993
0 HJ-1A
1 33320U 08041A   13295.51590998  .00000818  00000-0  12832-3 0  6296
2 33320 097.8053 354.1908 0027108 001.6385 358.4908 14.74996334276042
0 HJ-1A
1 33320U 08041A   13295.85509890  .00000739  00000-0  11655-3 0  6300
2 33320 097.8050 354.5177 0027067 000.5565 359.5647 14.74996353276091
0 HJ-1A
1 33320U 08041A   13296.19428750  .00000866  00000-0  13539-3 0  6318
2 33320 097.8047 354.8449 0027027 359.4552 000.6636 14.74997772276144
